NORAD_CAT_ID,OBJECT_NAME,OBJECT_TYPE,EPOCH,MEAN_MOTION,ECCENTRICITY,INCLINATION,RA_OF_ASC_NODE,ARG_OF_PERICENTER,MEAN_ANOMALY,BSTAR,MEAN_MOTION_DOT,MEAN_MOTION_DDOT,TLE_LINE0,TLE_LINE1,TLE_LINE2,SEMIMAJOR_AXIS,PERIOD,APOGEE,PERIGEE,DECAYED
52343.0,STARLINK-3849,PAYLOAD,2022-10-04 11:02:16,15.08844602,0.0002020999999999,53.2191,70.5936,39.1243,320.9895,0.00020074,2.908e-05,0.0,0 STARLINK-3849,1 52343U 22045N   22277.45991272  .00002908  00000-0  20074-3 0  9994,2 52343  53.2191  70.5936 0002021  39.1243 320.9895 15.08844602 26605,6917.866,95.437,541.129,538.3330000000002,0.0
52343.0,STARLINK-3849,PAYLOAD,2022-10-04 14:13:02,15.08844221,0.0002073999999999,53.2185,69.9991,39.9329,320.1816,0.00017835,2.552e-05,0.0,0 STARLINK-3849,1 52343U 22045N   22277.59239430  .00002552  00000-0  17835-3 0  9996,2 52343  53.2185  69.9991 0002074  39.9329 320.1816 15.08844221 26626,6917.8669999999975,95.437,541.1669999999998,538.298,0.0
52343.0,STARLINK-3849,PAYLOAD,2022-10-04 18:59:12,15.08843178,0.0002101,53.2176,69.1094,42.6653,317.4502,0.00010934,1.453e-05,0.0,0 STARLINK-3849,1 52343U 22045N   22277.79111408  .00001453  00000-0  10934-3 0  9994,2 52343  53.2176  69.1094 0002101  42.6653 317.4502 15.08843178 26658,6917.871,95.437,541.189,538.2819999999998,0.0
52343.0,STARLINK-3849,PAYLOAD,2022-10-06 02:46:55,15.08835779,0.0002109,53.218,63.1628,41.1978,318.9173,-1.5737000000000002e-05,-5.39e-06,0.0,0 STARLINK-3849,1 52343U 22045N   22279.11591776 -.00000539  00000-0 -15737-4 0  9995,2 52343  53.2180  63.1628 0002109  41.1978 318.9173 15.08835779 26852,6917.893,95.438,541.217,538.299,0.0
52343.0,STARLINK-3849,PAYLOAD,2022-10-06 12:19:14,15.08848144,0.0002114,53.2195,61.3769,40.9939,319.1212,-5.8862e-05,-1.225e-05,0.0,0 STARLINK-3849,1 52343U 22045N   22279.51335806 -.00001225  00000-0 -58862-4 0  9998,2 52343  53.2195  61.3769 0002114  40.9939 319.1212 15.08848144 26918,6917.855,95.437,541.183,538.258,0.0
52343.0,STARLINK-3849,PAYLOAD,2022-10-06 20:16:08,15.08857278,0.0002374,53.2197,59.8903,42.3179,317.7996,6.377e-05,7.27e-06,0.0,0 STARLINK-3849,1 52343U 22045N   22279.84454761  .00000727  00000-0  63770-4 0  9994,2 52343  53.2197  59.8903 0002374  42.3179 317.7996 15.08857278 26968,6917.828,95.436,541.335,538.05,0.0
52343.0,STARLINK-3849,PAYLOAD,2022-10-07 02:37:42,15.08842193,0.0002346999999999,53.219,58.7005,41.0875,319.0293,0.00025755,3.813e-05,0.0,0 STARLINK-3849,1 52343U 22045N   22280.10951882  .00003813  00000-0  25755-3 0  9990,2 52343  53.2190  58.7005 0002347  41.0875 319.0293 15.08842193 27002,6917.874,95.437,541.362,538.115,0.0
52343.0,STARLINK-3849,PAYLOAD,2022-10-07 12:10:00,15.08843802,0.000225,53.2186,56.9165,39.1193,320.9961,0.00022249,3.255e-05,0.0,0 STARLINK-3849,1 52343U 22045N   22280.50695448  .00003255  00000-0  22249-3 0  9992,2 52343  53.2186  56.9165 0002250  39.1193 320.9961 15.08843802 27065,6917.869000000002,95.437,541.29,538.177,0.0
52343.0,STARLINK-3849,PAYLOAD,2022-10-07 20:06:56,15.08838446,0.0002208,53.2187,55.4293,38.0637,322.0511,0.00012745,1.741e-05,0.0,0 STARLINK-3849,1 52343U 22045N   22280.83815758  .00001741  00000-0  12745-3 0  9994,2 52343  53.2187  55.4293 0002208  38.0637 322.0511 15.08838446 27114,6917.885,95.438,541.278,538.2230000000002,0.0
52343.0,STARLINK-3849,PAYLOAD,2022-10-08 04:03:52,15.08836149,0.0002153,53.219,53.9429,38.3333,321.7812,6.6666e-05,7.73e-06,0.0,0 STARLINK-3849,1 52343U 22045N   22281.16935925  .00000773  00000-0  66666-4 0  9996,2 52343  53.2190  53.9429 0002153  38.3333 321.7812 15.08836149 27160,6917.892,95.438,541.247,538.268,0.0
52343.0,STARLINK-3849,PAYLOAD,2022-10-08 12:00:48,15.08833564,0.0002188,53.2191,52.4562,38.524,321.5908,4.3228e-05,4e-06,0.0,0 STARLINK-3849,1 52343U 22045N   22281.50056276  .00000400  00000-0  43228-4 0  9993,2 52343  53.2191  52.4562 0002188  38.5240 321.5908 15.08833564 27218,6917.9,95.438,541.279,538.251,0.0
52343.0,STARLINK-3849,PAYLOAD,2022-10-08 18:22:20,15.08843226,0.0002229,53.219,51.2665,38.847,321.2682,0.00016019,2.262e-05,0.0,0 STARLINK-3849,1 52343U 22045N   22281.76551970  .00002262  00000-0  16019-3 0  9997,2 52343  53.2190  51.2665 0002229  38.8470 321.2682 15.08843226 27258,6917.871,95.437,541.278,538.194,0.0
52343.0,STARLINK-3849,PAYLOAD,2022-10-09 11:51:35,15.08839318,0.0002204,53.219,47.9953,34.2275,325.8858,0.00024581,3.626e-05,0.0,0 STARLINK-3849,1 52343U 22045N   22282.49416337  .00003626  00000-0  24581-3 0  9993,2 52343  53.2190  47.9953 0002204  34.2275 325.8858 15.08839318 27360,6917.882,95.438,541.2719999999998,538.2230000000002,0.0
52343.0,STARLINK-3849,PAYLOAD,2022-10-09 13:26:58,15.08840304,0.000223,53.2191,47.698,33.758,326.3554,0.00027059,4.021e-05,0.0,0 STARLINK-3849,1 52343U 22045N   22282.56040324  .00004021  00000-0  27059-3 0  9993,2 52343  53.2191  47.6980 0002230  33.7580 326.3554 15.08840304 27377,6917.879,95.438,541.2869999999998,538.202,0.0
52343.0,STARLINK-3849,PAYLOAD,2022-10-09 19:48:31,15.08845595,0.0002286,53.2191,46.5087,33.6892,326.4245,0.00045646,6.985e-05,0.0,0 STARLINK-3849,1 52343U 22045N   22282.82536287  .00006985  00000-0  45646-3 0  9993,2 52343  53.2191  46.5087 0002286  33.6892 326.4245 15.08845595 27419,6917.863,95.437,541.31,538.1469999999998,0.0
52343.0,STARLINK-3849,PAYLOAD,2022-10-10 11:42:22,15.088595499999998,0.0002223,53.2196,43.5352,29.7396,330.3722,0.0006641,0.00010303,0.0,0 STARLINK-3849,1 52343U 22045N   22283.48775656  .00010303  00000-0  66410-3 0  9992,2 52343  53.2196  43.5352 0002223  29.7396 330.3722 15.08859550 27513,6917.821,95.436,541.2230000000002,538.148,0.0
52343.0,STARLINK-3849,PAYLOAD,2022-10-10 13:17:45,15.08858897,0.0002181,53.2197,43.2378,29.3293,330.7822,0.000611,9.454e-05,0.0,0 STARLINK-3849,1 52343U 22045N   22283.55399607  .00009454  00000-0  61100-3 0  9994,2 52343  53.2197  43.2378 0002181  29.3293 330.7822 15.08858897 27523,6917.823,95.436,541.196,538.179,0.0
52343.0,STARLINK-3849,PAYLOAD,2022-10-10 19:39:17,15.08864162,0.0002265,53.2196,42.0487,27.9734,332.1379,0.00066397,0.00010302,0.0,0 STARLINK-3849,1 52343U 22045N   22283.81895295  .00010302  00000-0  66397-3 0  9994,2 52343  53.2196  42.0487 0002265  27.9734 332.1379 15.08864162 27566,6917.807,95.436,541.238,538.105,0.0
52343.0,STARLINK-3849,PAYLOAD,2022-10-11 03:36:13,15.0885167,0.0002201999999999,53.2198,40.5619,29.7431,330.3686,0.00018433,2.648e-05,0.0,0 STARLINK-3849,1 52343U 22045N   22284.15015316  .00002648  00000-0  18433-3 0  9992,2 52343  53.2198  40.5619 0002202  29.7431 330.3686 15.08851670 27610,6917.845,95.437,541.2330000000002,538.186,0.0
52343.0,STARLINK-3849,PAYLOAD,2022-10-11 11:33:09,15.08823458,0.0002214,53.2199,39.0752,31.3062,328.8062,-0.00057722,-9.459e-05,0.0,0 STARLINK-3849,1 52343U 22045N   22284.48135984 -.00009459  00000-0 -57722-3 0  9995,2 52343  53.2199  39.0752 0002214  31.3062 328.8062 15.08823458 27662,6917.931,95.439,541.328,538.264,0.0
52343.0,STARLINK-3849,PAYLOAD,2022-10-11 19:30:05,15.088234900000002,0.0002287,53.2197,37.5887,30.394,329.7184,-0.00025842,-4.397e-05,0.0,0 STARLINK-3849,1 52343U 22045N   22284.81256807 -.00004397  00000-0 -25842-3 0  9994,2 52343  53.2197  37.5887 0002287  30.3940 329.7184 15.08823490 27713,6917.931,95.439,541.378,538.214,0.0
52343.0,STARLINK-3849,PAYLOAD,2022-10-12 12:59:21,15.08827415,0.0002262,53.2198,34.3186,28.7077,331.4039,0.00075914,0.0001181,0.0,0 STARLINK-3849,1 52343U 22045N   22285.54121759  .00011810  00000-0  75914-3 0  9993,2 52343  53.2198  34.3186 0002262  28.7077 331.4039 15.08827415 27828,6917.919,95.438,541.349,538.219,0.0
52343.0,STARLINK-3849,PAYLOAD,2022-10-12 19:20:53,15.08837575,0.0002315,53.2197,33.1292,26.9069,333.2043,0.0009308,0.00014556,0.0,0 STARLINK-3849,1 52343U 22045N   22285.80617833  .00014556  00000-0  93080-3 0  9999,2 52343  53.2197  33.1292 0002315  26.9069 333.2043 15.08837575 27869,6917.888000000001,95.438,541.354,538.151,0.0
52343.0,STARLINK-3849,PAYLOAD,2022-10-13 12:50:08,15.08846846,0.0002378,53.2194,29.8588,28.0173,332.0947,0.00066144,0.00010256,0.0,0 STARLINK-3849,1 52343U 22045N   22286.53481895  .00010256  00000-0  66144-3 0  9991,2 52343  53.2194  29.8588 0002378  28.0173 332.0947 15.08846846 27977,6917.859,95.437,541.37,538.0790000000002,0.0
52343.0,STARLINK-3849,PAYLOAD,2022-10-13 14:25:31,15.0885035,0.0002387,53.2194,29.5615,28.0878,332.0243,0.00074353,0.00011568,0.0,0 STARLINK-3849,1 52343U 22045N   22286.60105818  .00011568  00000-0  74353-3 0  9995,2 52343  53.2194  29.5615 0002387  28.0878 332.0243 15.08850350 27982,6917.849,95.437,541.365,538.062,0.0
52343.0,STARLINK-3849,PAYLOAD,2022-10-13 19:11:40,15.08853549,0.0002424999999999,53.2193,28.6694,28.3595,331.7529,0.00068811,0.00010684,0.0,0 STARLINK-3849,1 52343U 22045N   22286.79977697  .00010684  00000-0  68811-3 0  9997,2 52343  53.2193  28.6694 0002425  28.3595 331.7529 15.08853549 28011,6917.839,95.437,541.382,538.026,0.0
52343.0,STARLINK-3849,PAYLOAD,2022-10-13 23:57:50,15.08847096,0.0002366,53.2192,27.7773,27.1915,332.9201,0.0003463,5.229e-05,0.0,0 STARLINK-3849,1 52343U 22045N   22286.99849680  .00005229  00000-0  34630-3 0  9990,2 52343  53.2192  27.7773 0002366  27.1915 332.9201 15.08847096 28048,6917.859,95.437,541.36,538.087,0.0
52343.0,STARLINK-3849,PAYLOAD,2022-10-14 11:05:32,15.08847946,0.000241,53.2191,25.696,29.5052,330.6076,0.00035183,5.317e-05,0.0,0 STARLINK-3849,1 52343U 22045N   22287.46217679  .00005317  00000-0  35183-3 0  9992,2 52343  53.2191  25.6960 0002410  29.5052 330.6076 15.08847946 28117,6917.856,95.437,541.388,538.054,0.0
52343.0,STARLINK-3849,PAYLOAD,2022-10-14 15:51:41,15.08844637,0.0002531,53.2191,24.8037,34.6348,325.4809,0.00026203,3.885e-05,0.0,0 STARLINK-3849,1 52343U 22045N   22287.66089714  .00003885  00000-0  26203-3 0  9992,2 52343  53.2191  24.8037 0002531  34.6348 325.4809 15.08844637 28145,6917.866,95.437,541.482,537.98,0.0
